COSMOS 2251 DEB         
1 37483U 93036BLL 17345.20861655  .00000107  00000-0  41086-4 0  9990
2 37483  73.9738 171.6199 0098532 329.1304  30.4078 14.39628686419848
